
# C41 (GNSS)
1 44864U 19090A   25306.33547644 -.00000002  00000+0  00000+0 0  9998
2 44864  56.3586  70.3018 0016324 284.6273  76.8659  1.86231251 40013

# C42 (GNSS)
1 44865U 19090B   25303.51178001  .00000013  00000+0  00000+0 0  9994
2 44865  56.3576  70.4297 0013458 298.6477  59.3184  1.86231383 39933

# C60 (GNSS)
1 45344U 20017A   25306.57842294 -.00000128  00000+0  00000+0 0  9997
2 45344   2.9233  42.9788 0003149 258.5852  28.8323  1.00272144 20987

# C61 (GNSS)
1 45807U 20040A   25306.27461392 -.00000340  00000+0  00000+0 0  9996
2 45807   1.8890  66.1562 0004470 309.3532 235.7466  1.00271890 19795

# C62 (GNSS)
1 56564U 23066A   25306.54333620 -.00000100  00000+0  00000+0 0  9995
2 56564   0.9078 298.9207 0004457 225.3292 233.4484  1.00272314  9124

# C50 (GNSS)
1 58654U 23207A   25305.62928190  .00000001  00000+0  00000+0 0  9993
2 58654  55.5489  69.9929 0000823 241.0904 118.8927  1.86229665 12603

# E24 (GNSS)
1 40889U 15045A   25302.12225975  .00000006  00000+0  00000+0 0  9993
2 40889  55.0208 227.9903 0004892  29.1960 330.8513  1.70472905 63077

# E30 (GNSS)
1 40890U 15045B   25305.27583823 -.00000003  00000+0  00000+0 0  9991
2 40890  55.0187 227.8984 0002924  18.6682 341.3557  1.70472879 63155

# E07 (GNSS)
1 41859U 16069A   25303.39141277  .00000075  00000+0  00000+0 0  9996
2 41859  55.3553 107.4504 0001973 344.2545  15.7629  1.70474236 55489

# E08 (GNSS)
1 41175U 15079B   25305.66453953  .00000081  00000+0  00000+0 0  9993
2 41175  55.6863 107.5055 0002060  23.6955 336.3358  1.70474024 61315

# E09 (GNSS)
1 41174U 15079A   25304.85782922  .00000081  00000+0  00000+0 0  9993
2 41174  55.6870 107.5304 0002545  11.4477 348.5821  1.70474234 60885

# E01 (GNSS)
1 41550U 16030B   25303.11277141  .00000004  00000+0  00000+0 0  9994
2 41550  55.1686 228.0216 0002409 248.6919 111.2999  1.70473431 58749

# E02 (GNSS)
1 41549U 16030A   25304.61498731 -.00000001  00000+0  00000+0 0  9996
2 41549  55.1686 227.9821 0003531 351.1726   8.8350  1.70472880 58772

# E03 (GNSS)
1 41860U 16069B   25306.17803863  .00000079  00000+0  00000+0 0  9997
2 41860  55.3545 107.3686 0002754  42.9674 317.0737  1.70474338 55789

# E04 (GNSS)
1 41861U 16069C   25304.78592881  .00000080  00000+0  00000+0 0  9990
2 41861  55.3558 107.4147 0001533 295.2659  64.7422  1.70474675 55621

# E05 (GNSS)
1 41862U 16069D   25305.51846472  .00000080  00000+0  00000+0 0  9991
2 41862  55.3553 107.3874 0000688 320.8734  39.1439  1.70474414 55762

# E21 (GNSS)
1 43055U 17079A   25306.00826293 -.00000003  00000+0  00000+0 0  9999
2 43055  55.1458 227.7587 0001934 296.9779  63.0158  1.70473633 49113

# E25 (GNSS)
1 43056U 17079B   25301.02032741  .00000008  00000+0  00000+0 0  9998
2 43056  55.1481 227.8958 0003520 295.6180  64.3670  1.70473864 49049

# E27 (GNSS)
1 43057U 17079C   25305.34709605 -.00000003  00000+0  00000+0 0  9994
2 43057  55.1446 227.7749 0003176 317.6282  42.3607  1.70473698 49101

# E31 (GNSS)
1 43058U 17079D   25304.39399319  .00000000  00000+0  00000+0 0  9992
2 43058  55.1450 227.7988 0003758 291.1857  68.7889  1.70473725 49118

# E36 (GNSS)
1 43566U 18060C   25302.97746656 -.00000063  00000+0  00000+0 0  9999
2 43566  57.2404 348.0060 0005105 275.3430  84.6644  1.70475975 45268

# E13 (GNSS)
1 43567U 18060D   25304.95812356 -.00000061  00000+0  00000+0 0  9999
2 43567  57.2393 347.9534 0005209 272.5295  87.4788  1.70475826 45280

# E15 (GNSS)
1 43564U 18060A   25303.71016724 -.00000062  00000+0  00000+0 0  9995
2 43564  57.2374 347.9815 0006044 272.1001  87.8970  1.70475999 45252

# E33 (GNSS)
1 43565U 18060B   25306.27578358 -.00000061  00000+0  00000+0 0  9995
2 43565  57.2404 347.9151 0005969 251.8758 108.1285  1.70475660 45349

# E34 (GNSS)
1 49809U 21116A   25304.22939619 -.00000061  00000+0  00000+0 0  9992
2 49809  57.2292 347.8641 0004520 233.0702 130.4282  1.70476037 24281

# E10 (GNSS)
1 49810U 21116B   25305.22557390 -.00000061  00000+0  00000+0 0  9997
2 49810  57.2297 347.8358 0003850 235.6577 131.8009  1.70475974 24322

# R01 (GNSS)
1 36111U 09070A   25306.00328561  .00000032  00000+0  00000+0 0  9992
2 36111  64.8780  78.7303 0001665 312.2037 255.4221  2.13103520123588

# R02 (GNSS)
1 39155U 13019A   25305.78873729  .00000041  00000+0  00000+0 0  9996
2 39155  65.2932  81.2436 0023556 227.1726 132.6259  2.13104293 97430

# R03 (GNSS)
1 37867U 11064A   25306.04226358  .00000037  00000+0  00000+0 0  9997
2 37867  65.1406  80.5479 0023053 231.2048 275.0006  2.13101355108922

# R04 (GNSS)
1 44850U 19088A   25306.37602081  .00000036  00000+0  00000+0 0  9997
2 44850  65.4389  81.3079 0012640 246.1316 113.7296  2.13101876 45885

# R05 (GNSS)
1 43508U 18053A   25305.96224913  .00000040  00000+0  00000+0 0  9990
2 43508  65.4511  81.4941 0008022 216.8955 143.0449  2.13102098 57439

# R06 (GNSS)
1 36112U 09070B   25306.50294325  .00000027  00000+0  00000+0 0  9992
2 36112  64.8631  78.5615 0005732 145.9605 214.5093  2.13100900123604

# R07 (GNSS)
1 37868U 11064B   25306.25413722  .00000035  00000+0  00000+0 0  9992
2 37868  65.1473  80.6179 0020137 231.4578 258.0157  2.13102791108928

# R08 (GNSS)
1 37869U 11064C   25304.02532605  .00000050  00000+0  00000+0 0  9995
2 37869  65.1539  80.7128 0024836 246.8258 288.9285  2.13101558108881

# R09 (GNSS)
1 40315U 14075A   25306.17922241  .00000040  00000+0  00000+0 0  9996
2 40315  63.6136 198.2297 0020484 206.6705 153.2945  2.13101287 85010

# R10 (GNSS)
1 32395U 07065C   25306.34520427  .00000039  00000+0  00000+0 0  9993
2 32395  64.3229 199.6362 0017443   5.0604  81.2911  2.13099936138893

# R11 (GNSS)
1 46805U 20075A   25303.94405731  .00000019  00000+0  00000+0 0  9991
2 46805  64.5957 200.1251 0007002 233.7564 126.2421  2.13099824 39021

# R12 (GNSS)
1 44299U 19030A   25305.88841492  .00000034  00000+0  00000+0 0  9995
2 44299  64.3651 200.2690 0010179 281.6979  81.1892  2.13101982 50083

# R13 (GNSS)
1 32393U 07065A   25306.17360902  .00000037  00000+0  00000+0 0  9990
2 32393  64.3147 199.5721 0003280  66.1444 115.3120  2.13101191138935

# R14 (GNSS)
1 42939U 17055A   25306.00163216  .00000036  00000+0  00000+0 0  9997
2 42939  64.0757 199.6161 0007406 231.6008 128.4005  2.13101868 63131

# R15 (GNSS)
1 43687U 18086A   25306.05981623  .00000035  00000+0  00000+0 0  9997
2 43687  64.2917 200.2626 0008438 256.2449 103.7282  2.13101901 54440

# R16 (GNSS)
1 54377U 22161A   25306.11941319  .00000036  00000+0  00000+0 0  9990
2 54377  64.7374 200.2478 0009344 212.3665 147.6434  2.13101983 22794

# R17 (GNSS)
1 41330U 16008A   25305.69393744 -.00000003  00000+0  00000+0 0  9998
2 41330  65.1564 320.8107 0013298 217.5457 142.4133  2.13102499 75770

# R18 (GNSS)
1 39620U 14012A   25306.21659191 -.00000005  00000+0  00000+0 0  9992
2 39620  65.4296 321.6459 0013634 307.7182  52.2110  2.13103145 90403

# R19 (GNSS)
1 54031U 22130A   25305.80583563 -.00000007  00000+0  00000+0 0  9990
2 54031  64.4044 322.5825 0012721 192.2427 167.7797  2.13101446 23847

# R20 (GNSS)
1 32276U 07052B   25306.24789418 -.00000006  00000+0  00000+0 0  9998
2 32276  65.7197 323.6901 0010649 307.4186 344.8217  2.13103095140244

# R21 (GNSS)
1 40001U 14032A   25305.92007715 -.00000004  00000+0  00000+0 0  9994
2 40001  65.3656 321.4214 0009139 215.7440 144.2475  2.13105920 88613

# R22 (GNSS)
1 52984U 22075A   25303.17119515 -.00000009  00000+0  00000+0 0  9995
2 52984  64.4329 322.5844 0013724 273.4662  86.4294  2.13102031 25815

# R23 (GNSS)
1 36402U 10007C   25304.62410883 -.00000002  00000+0  00000+0 0  9990
2 36402  65.5519 322.1966 0002980 251.2622 106.6618  2.13106174121856

# R24 (GNSS)
1 45358U 20018A   25305.63350612 -.00000005  00000+0  00000+0 0  9991
2 45358  64.4926 320.4124 0012379 244.3976 115.5254  2.13102444 43811

# R25 (GNSS)
1 32275U 07052A   25306.26398882 -.00000006  00000+0  00000+0 0  9990
2 32275  65.7042 323.5660 0005958 243.6059 116.3881  2.13104033140220
